[
    {
        "Altitude(m)": 604234.5904351727,
        "Argument of Periapsis(deg)": 0.0,
        "Eccentricity": 0.0,
        "Inclination(deg)": 60.0,
        "Latitude(deg)": 14.11712858447563,
        "Longitude(deg)": -108.27265942399767,
        "Mean Anomaly(deg)": 163.6364,
        "RAAN(deg)": 180.0,
        "Satellite Name": "Test1 802",
        "Satellite Number": 802,
        "Semi-Major Axis(m)": 6980739.136638005,
        "Time(s)": 0
    },
    {
        "Altitude(m)": 604223.4196161741,
        "Argument of Periapsis(deg)": 0.00010418945913296404,
        "Eccentricity": 0.0,
        "Inclination(deg)": 60.0,
        "Latitude(deg)": 13.582264682038884,
        "Longitude(deg)": -107.98575089767574,
        "Mean Anomaly(deg)": 164.25650614546186,
        "RAAN(deg)": 179.99957995086024,
        "Satellite Name": "Test1 802",
        "Satellite Number": 802,
        "Semi-Major Axis(m)": 6980739.136638005,
        "Time(s)": 10
    }
]